NORAD_CAT_ID,OBJECT_NAME,OBJECT_TYPE,EPOCH,MEAN_MOTION,ECCENTRICITY,INCLINATION,RA_OF_ASC_NODE,ARG_OF_PERICENTER,MEAN_ANOMALY,BSTAR,MEAN_MOTION_DOT,MEAN_MOTION_DDOT,TLE_LINE0,TLE_LINE1,TLE_LINE2,SEMIMAJOR_AXIS,PERIOD,APOGEE,PERIGEE,DECAYED
49765.0,STARLINK-3227,PAYLOAD,2024-03-13 12:23:49,15.08843731,0.0001497,53.2168,159.045,95.3196,264.7967,-1.658e-05,-5.52e-06,0.0,0 STARLINK-3227,1 49765U 21115AT  24073.51654030 -.00000552  00000-0 -16580-4 0  9999,2 49765  53.2168 159.0450 0001497  95.3196 264.7967 15.08843731126051,6917.869,95.437,540.77,538.698,0.0
49765.0,STARLINK-3227,PAYLOAD,2024-03-13 15:34:35,15.08843814,0.000152,53.2165,158.4507,94.9075,265.209,-1.5179e-05,-5.3e-06,0.0,0 STARLINK-3227,1 49765U 21115AT  24073.64902001 -.00000530  00000-0 -15179-4 0  9996,2 49765  53.2165 158.4507 0001520  94.9075 265.2090 15.08843814127182,6917.869,95.437,540.785,538.682,0.0
49765.0,STARLINK-3227,PAYLOAD,2024-03-14 10:39:12,15.08844301,0.0001559,53.2171,154.8819,94.5528,265.5643,0.00013567,1.872e-05,0.0,0 STARLINK-3227,1 49765U 21115AT  24074.44389576  .00001872  00000-0  13567-3 0  9997,2 49765  53.2171 154.8819 0001559  94.5528 265.5643 15.08844301126195,6917.867,95.437,540.811,538.654,0.0
49765.0,STARLINK-3227,PAYLOAD,2024-03-15 05:43:50,15.08837868,0.0001539,53.2168,151.3163,94.8138,265.3029,4.3663e-05,4.07e-06,0.0,0 STARLINK-3227,1 49765U 21115AT  24075.23878371  .00000407  00000-0  43663-4 0  9995,2 49765  53.2168 151.3163 0001539  94.8138 265.3029 15.08837868127426,6917.887,95.438,540.817,538.687,0.0
49765.0,STARLINK-3227,PAYLOAD,2024-03-15 10:30:00,15.08838485,0.0001544,53.217,150.4242,94.684,265.4328,4.1132e-05,3.67e-06,0.0,0 STARLINK-3227,1 49765U 21115AT  24075.43750325  .00000367  00000-0  41132-4 0  9999,2 49765  53.2170 150.4242 0001544  94.6840 265.4328 15.08838485126340,6917.885,95.438,540.818,538.682,0.0
49765.0,STARLINK-3227,PAYLOAD,2024-03-16 11:56:11,15.08809898,0.0001672,53.217,145.6681,89.2045,270.9139,0.00035696,5.393e-05,0.0,0 STARLINK-3227,1 49765U 21115AT  24076.49735341  .00005393  00000-0  35696-3 0  9998,2 49765  53.2170 145.6681 0001672  89.2045 270.9139 15.08809898127610,6917.972,95.439,540.994,538.681,0.0
49765.0,STARLINK-3227,PAYLOAD,2024-03-17 03:50:02,15.0883404,0.0001487,53.2169,142.6948,82.3926,277.7235,5.2088e-05,5.41e-06,0.0,0 STARLINK-3227,1 49765U 21115AT  24077.15975020  .00000541  00000-0  52088-4 0  9997,2 49765  53.2169 142.6948 0001487  82.3926 277.7235 15.08834040127717,6917.899,95.438,540.792,538.735,0.0
49765.0,STARLINK-3227,PAYLOAD,2024-03-17 11:46:57,15.08838089,0.0001519,53.2169,141.2083,80.2779,279.8385,8.0904e-05,1e-05,0.0,0 STARLINK-3227,1 49765U 21115AT  24077.49094769  .00001000  00000-0  80904-4 0  9995,2 49765  53.2169 141.2083 0001519  80.2779 279.8385 15.08838089126659,6917.886,95.438,540.802,538.7,0.0
49765.0,STARLINK-3227,PAYLOAD,2024-03-18 11:37:44,15.08843004,0.0001581,53.217,136.7482,75.4955,284.6212,0.00013218,1.816e-05,0.0,0 STARLINK-3227,1 49765U 21115AT  24078.48454484  .00001816  00000-0  13218-3 0  9997,2 49765  53.2170 136.7482 0001581  75.4955 284.6212 15.08843004127910,6917.871,95.437,540.83,538.642,0.0
49765.0,STARLINK-3227,PAYLOAD,2024-03-19 09:53:08,15.08847564,0.0001688,53.2168,132.5857,73.3865,286.7312,9.2205e-05,1.18e-05,0.0,0 STARLINK-3227,1 49765U 21115AT  24079.41190246  .00001180  00000-0  92205-4 0  9992,2 49765  53.2168 132.5857 0001688  73.3865 286.7312 15.08847564126943,6917.857,95.437,540.89,538.555,0.0
49765.0,STARLINK-3227,PAYLOAD,2024-03-20 09:43:55,15.08843835,0.0001514,53.2156,128.127,81.4018,278.7146,4.7688e-06,-2.12e-06,0.0,0 STARLINK-3227,1 49765U 21115AT  24080.40550429 -.00000212  00000-0  47688-5 0  9998,2 49765  53.2156 128.1270 0001514  81.4018 278.7146 15.08843835128202,6917.869,95.437,540.781,538.686,0.0
49765.0,STARLINK-3227,PAYLOAD,2024-03-20 12:54:41,15.08845016,0.0001482,53.216,127.5256,85.5101,274.606,1.0987e-05,-1.13e-06,0.0,0 STARLINK-3227,1 49765U 21115AT  24080.53798226 -.00000113  00000-0  10987-4 0  9992,2 49765  53.2160 127.5256 0001482  85.5101 274.6060 15.08845016127118,6917.865,95.437,540.755,538.705,0.0
49765.0,STARLINK-3227,PAYLOAD,2024-03-21 03:13:10,15.0883605,0.0001499,53.217,124.8431,102.9025,257.2135,-0.00010682,-1.987e-05,0.0,0 STARLINK-3227,1 49765U 21115AT  24081.13415198 -.00001987  00000-0 -10682-3 0  9995,2 49765  53.2170 124.8431 0001499 102.9025 257.2135 15.08836050128312,6917.892,95.438,540.794,538.72,0.0
49765.0,STARLINK-3227,PAYLOAD,2024-03-21 12:45:29,15.0883514,0.0001513,53.2161,123.0655,95.8225,264.2939,1.659e-05,-2.4e-07,0.0,0 STARLINK-3227,1 49765U 21115AT  24081.53159151 -.00000024  00000-0  16590-4 0  9998,2 49765  53.2161 123.0655 0001513  95.8225 264.2939 15.08835140127262,6917.895,95.438,540.807,538.714,0.0
49765.0,STARLINK-3227,PAYLOAD,2024-03-22 03:03:54,15.08862317,0.0001802,53.2163,120.3856,108.8537,251.265,0.00031024,4.656e-05,0.0,0 STARLINK-3227,1 49765U 21115AT  24082.12771979  .00004656  00000-0  31024-3 0  9994,2 49765  53.2163 120.3856 0001802 108.8537 251.2650 15.08862317128464,6917.812,95.436,540.924,538.431,0.0
49765.0,STARLINK-3227,PAYLOAD,2024-03-22 12:36:16,15.08831819,0.0001112,53.2158,118.6071,95.7377,264.3742,-5.5609e-05,-1.172e-05,0.0,0 STARLINK-3227,1 49765U 21115AT  24082.52518880 -.00001172  00000-0 -55609-4 0  9996,2 49765  53.2158 118.6071 0001112  95.7377 264.3742 15.08831819128524,6917.905,95.438,540.54,539.001,0.0
49765.0,STARLINK-3227,PAYLOAD,2024-03-23 02:54:46,15.08812877,0.0001536,53.2163,115.9259,109.3277,250.7881,-9.7746e-05,-1.842e-05,0.0,0 STARLINK-3227,1 49765U 21115AT  24083.12137237 -.00001842  00000-0 -97746-4 0  9998,2 49765  53.2163 115.9259 0001536 109.3277 250.7881 15.08812877128615,6917.963,95.439,540.891,538.766,0.0
49765.0,STARLINK-3227,PAYLOAD,2024-03-23 18:48:37,15.08828323,0.0001456,53.2176,112.9563,92.3206,267.7953,-4.9329e-07,-2.96e-06,0.0,0 STARLINK-3227,1 49765U 21115AT  24083.78377059 -.00000296  00000-0 -49329-6 0  9996,2 49765  53.2176 112.9563 0001456  92.3206 267.7953 15.08828323128710,6917.916,95.438,540.788,538.774,0.0
49765.0,STARLINK-3227,PAYLOAD,2024-03-24 10:42:27,15.08856809,0.0001521,53.216,109.9777,92.7961,267.3205,8.3585e-05,1.043e-05,0.0,0 STARLINK-3227,1 49765U 21115AT  24084.44614719  .00001043  00000-0  83585-4 0  9996,2 49765  53.2160 109.9777 0001521  92.7961 267.3205 15.08856809128818,6917.829,95.436,540.746,538.642,0.0
49765.0,STARLINK-3227,PAYLOAD,2024-03-24 18:39:23,15.08837953,0.000155,53.2175,108.4915,93.2158,266.9012,0.0003496,5.28e-05,0.0,0 STARLINK-3227,1 49765U 21115AT  24084.77735766  .00005280  00000-0  34960-3 0  9997,2 49765  53.2175 108.4915 0001550  93.2158 266.9012 15.08837953128863,6917.887,95.438,540.824,538.679,0.0
49765.0,STARLINK-3227,PAYLOAD,2024-03-25 18:30:10,15.08847531,0.0001501,53.2167,104.0329,92.5192,267.5972,0.0001868,2.687e-05,0.0,0 STARLINK-3227,1 49765U 21115AT  24085.77095785  .00002687  00000-0  18680-3 0  9997,2 49765  53.2167 104.0329 0001501  92.5192 267.5972 15.08847531127900,6917.857,95.437,540.761,538.684,0.0
49765.0,STARLINK-3227,PAYLOAD,2024-03-26 05:37:53,15.08839936,0.0002365,53.2173,101.9496,94.2349,265.8914,-9.7511e-05,-1.84e-05,0.0,0 STARLINK-3227,1 49765U 21115AT  24086.23464295 -.00001840  00000-0 -97511-4 0  9998,2 49765  53.2173 101.9496 0002365  94.2349 265.8914 15.08839936129088,6917.881,95.438,541.382,538.11,0.0
49765.0,STARLINK-3227,PAYLOAD,2024-03-26 10:24:02,15.08839312,0.0001674,53.2156,101.061,94.9235,265.1948,-0.00013113,-2.374e-05,0.0,0 STARLINK-3227,1 49765U 21115AT  24086.43336250 -.00002374  00000-0 -13113-3 0  9997,2 49765  53.2156 101.0610 0001674  94.9235 265.1948 15.08839312128000,6917.882,95.438,540.906,538.589,0.0
49765.0,STARLINK-3227,PAYLOAD,2024-03-26 18:20:58,15.08841181,0.0001658,53.216,99.5748,95.473,264.6452,-4.3223e-05,-9.76e-06,0.0,0 STARLINK-3227,1 49765U 21115AT  24086.76456168 -.00000976  00000-0 -43223-4 0  9996,2 49765  53.2160  99.5748 0001658  95.4730 264.6452 15.08841181128052,6917.877,95.437,540.889,538.595,0.0
49765.0,STARLINK-3227,PAYLOAD,2024-03-27 05:28:39,15.08852413,0.0001709,53.2162,97.4941,93.4195,266.6993,8.4389e-05,1.056e-05,0.0,0 STARLINK-3227,1 49765U 21115AT  24087.22823529  .00001056  00000-0  84389-4 0  9993,2 49765  53.2162  97.4941 0001709  93.4195 266.6993 15.08852413129239,6917.842,95.437,540.89,538.525,0.0
49765.0,STARLINK-3227,PAYLOAD,2024-03-27 10:14:48,15.08855637,0.0001653,53.2153,96.6004,99.5298,260.5881,0.00017347,2.475e-05,0.0,0 STARLINK-3227,1 49765U 21115AT  24087.42695333  .00002475  00000-0  17347-3 0  9990,2 49765  53.2153  96.6004 0001653  99.5298 260.5881 15.08855637128159,6917.833,95.437,540.841,538.554,0.0
49765.0,STARLINK-3227,PAYLOAD,2024-03-27 18:11:44,15.0884765,0.000158,53.2145,95.1143,101.4288,258.6881,6.2129e-05,7.01e-06,0.0,0 STARLINK-3227,1 49765U 21115AT  24087.75815620  .00000701  00000-0  62129-4 0  9998,2 49765  53.2145  95.1143 0001580 101.4288 258.6881 15.08847650129312,6917.857,95.437,540.815,538.629,0.0
49765.0,STARLINK-3227,PAYLOAD,2024-03-28 10:05:35,15.08846717,0.0001588,53.2165,92.1408,103.0154,257.1016,0.00020261,2.939e-05,0.0,0 STARLINK-3227,1 49765U 21115AT  24088.42055470  .00002939  00000-0  20261-3 0  9997,2 49765  53.2165  92.1408 0001588 103.0154 257.1016 15.08846717128308,6917.86,95.437,540.823,538.626,0.0
49765.0,STARLINK-3227,PAYLOAD,2024-03-29 05:10:14,15.08832464,0.0001542,53.2177,88.5679,117.3226,242.7923,5.5017e-05,5.88e-06,0.0,0 STARLINK-3227,1 49765U 21115AT  24089.21544583  .00000588  00000-0  55017-4 0  9999,2 49765  53.2177  88.5679 0001542 117.3226 242.7923 15.08832464129535,6917.903,95.438,540.835,538.702,0.0
49765.0,STARLINK-3227,PAYLOAD,2024-03-29 09:56:23,15.08840378,0.0001499,53.2164,87.6796,97.8836,262.2326,-2.0216e-05,-6.1e-06,0.0,0 STARLINK-3227,1 49765U 21115AT  24089.41416346 -.00000610  00000-0 -20216-4 0  9997,2 49765  53.2164  87.6796 0001499  97.8836 262.2326 15.08840378128458,6917.879,95.438,540.781,538.707,0.0
